{
  "type": "FeatureCollection",
  "features": [
    {
      "type": "Feature",
      "properties": {
        "norad_id": 34022,
        "name": "COSMOS 2251 DEB",
        "group": "cosmos-2251-debris",
        "lat": 52.619953058862514,
        "lon": 59.59971344005748,
        "alt_km": 771.8223916378092,
        "timestamp": "2025-12-17T17:50:19.644034+00:00",
        "meta_object_name": "COSMOS 2251 DEB",
        "meta_object_id": "1993-036HH",
        "meta_epoch": "2025-12-17T04:26:53.846880",
        "meta_mean_motion": 14.38970341,
        "meta_eccentricity": 0.00228712,
        "meta_inclination": 74.0541,
        "meta_ra_of_asc_node": 262.6037,
        "meta_arg_of_pericenter": 326.8323,
        "meta_mean_anomaly": 148.1614,
        "meta_ephemeris_type": 0,
        "meta_classification_type": "U",
        "meta_norad_cat_id": 34022,
        "meta_element_set_no": 999,
        "meta_rev_at_epoch": 88259,
        "meta_bstar": 0.00019668648,
        "meta_mean_motion_dot": 5.82e-06,
        "meta_mean_motion_ddot": 0,
        "tle_line1": "1 34022U 93036HH  25351.18534545  .00000582  00000+0  19669-3 0  9991",
        "tle_line2": "2 34022  74.0541 262.6037 0022871 326.8323 148.1614 14.38970341882594"
      },
      "geometry": {
        "type": "Point",
        "coordinates": [
          59.59971344005748,
          52.619953058862514
        ]
      }
    },
    {
      "type": "Feature",
      "properties": {
        "norad_id": 34023,
        "name": "COSMOS 2251 DEB",
        "group": "cosmos-2251-debris",
        "lat": 66.47282686718495,
        "lon": -76.37040682823135,
        "alt_km": 750.9512773250553,
        "timestamp": "2025-12-17T17:50:19.644044+00:00",
        "meta_object_name": "COSMOS 2251 DEB",
        "meta_object_id": "1993-036HJ",
        "meta_epoch": "2025-12-17T03:12:04.519296",
        "meta_mean_motion": 14.40570805,
        "meta_eccentricity": 0.00186412,
        "meta_inclination": 74.0246,
        "meta_ra_of_asc_node": 243.6123,
        "meta_arg_of_pericenter": 338.6382,
        "meta_mean_anomaly": 172.0011,
        "meta_ephemeris_type": 0,
        "meta_classification_type": "U",
        "meta_norad_cat_id": 34023,
        "meta_element_set_no": 999,
        "meta_rev_at_epoch": 88277,
        "meta_bstar": 0.00027324637,
        "meta_mean_motion_dot": 8.46e-06,
        "meta_mean_motion_ddot": 0,
        "tle_line1": "1 34023U 93036HJ  25351.13338564  .00000846  00000+0  27325-3 0  9991",
        "tle_line2": "2 34023  74.0246 243.6123 0018641 338.6382 172.0011 14.40570805882779"
      },
      "geometry": {
        "type": "Point",
        "coordinates": [
          -76.37040682823135,
          66.47282686718495
        ]
      }
    },
    {
      "type": "Feature",
      "properties": {
        "norad_id": 34024,
        "name": "COSMOS 2251 DEB",
        "group": "cosmos-2251-debris",
        "lat": -10.929659378555174,
        "lon": -56.343968044802956,
        "alt_km": 762.5815771673233,
        "timestamp": "2025-12-17T17:50:19.644054+00:00",
        "meta_object_name": "COSMOS 2251 DEB",
        "meta_object_id": "1993-036HK",
        "meta_epoch": "2025-12-17T08:23:49.873920",
        "meta_mean_motion": 14.35401707,
        "meta_eccentricity": 0.00212546,
        "meta_inclination": 74.0466,
        "meta_ra_of_asc_node": 307.5433,
        "meta_arg_of_pericenter": 357.221,
        "meta_mean_anomaly": 119.4965,
        "meta_ephemeris_type": 0,
        "meta_classification_type": "U",
        "meta_norad_cat_id": 34024,
        "meta_element_set_no": 999,
        "meta_rev_at_epoch": 88090,
        "meta_bstar": 0.00016707003,
        "meta_mean_motion_dot": 4.55e-06,
        "meta_mean_motion_ddot": 0,
        "tle_line1": "1 34024U 93036HK  25351.34988280  .00000455  00000+0  16707-3 0  9999",
        "tle_line2": "2 34024  74.0466 307.5433 0021254 357.2210 119.4965 14.35401707880903"
      },
      "geometry": {
        "type": "Point",
        "coordinates": [
          -56.343968044802956,
          -10.929659378555174
        ]
      }
    },
    {
      "type": "Feature",
      "properties": {
        "norad_id": 34026,
        "name": "COSMOS 2251 DEB",
        "group": "cosmos-2251-debris",
        "lat": 49.016027451484206,
        "lon": -11.442351553137309,
        "alt_km": 1224.2676246612136,
        "timestamp": "2025-12-17T17:50:19.644064+00:00",
        "meta_object_name": "COSMOS 2251 DEB",
        "meta_object_id": "1993-036HM",
        "meta_epoch": "2025-12-17T05:21:14.532768",
        "meta_mean_motion": 13.6531508,
        "meta_eccentricity": 0.03502011,
        "meta_inclination": 73.7668,
        "meta_ra_of_asc_node": 329.8298,
        "meta_arg_of_pericenter": 199.1697,
        "meta_mean_anomaly": 179.1073,
        "meta_ephemeris_type": 0,
        "meta_classification_type": "U",
        "meta_norad_cat_id": 34026,
        "meta_element_set_no": 999,
        "meta_rev_at_epoch": 83593,
        "meta_bstar": 0.00044801592,
        "meta_mean_motion_dot": 5.3e-06,
        "meta_mean_motion_ddot": 0,
        "tle_line1": "1 34026U 93036HM  25351.22308487  .00000530  00000+0  44802-3 0  9994",
        "tle_line2": "2 34026  73.7668 329.8298 0350201 199.1697 179.1073 13.65315080835936"
      },
      "geometry": {
        "type": "Point",
        "coordinates": [
          -11.442351553137309,
          49.016027451484206
        ]
      }
    },
    {
      "type": "Feature",
      "properties": {
        "norad_id": 34028,
        "name": "COSMOS 2251 DEB",
        "group": "cosmos-2251-debris",
        "lat": -17.98462791513366,
        "lon": -25.806123535408773,
        "alt_km": 1467.0292441268266,
        "timestamp": "2025-12-17T17:50:19.644074+00:00",
        "meta_object_name": "COSMOS 2251 DEB",
        "meta_object_id": "1993-036HP",
        "meta_epoch": "2025-12-17T07:33:37.331424",
        "meta_mean_motion": 13.20626337,
        "meta_eccentricity": 0.0543574,
        "meta_inclination": 73.8834,
        "meta_ra_of_asc_node": 340.2356,
        "meta_arg_of_pericenter": 117.2975,
        "meta_mean_anomaly": 353.212,
        "meta_ephemeris_type": 0,
        "meta_classification_type": "U",
        "meta_norad_cat_id": 34028,
        "meta_element_set_no": 999,
        "meta_rev_at_epoch": 81068,
        "meta_bstar": 0.00037643385,
        "meta_mean_motion_dot": 3.16e-06,
        "meta_mean_motion_ddot": 0,
        "tle_line1": "1 34028U 93036HP  25351.31501541  .00000316  00000+0  37643-3 0  9999",
        "tle_line2": "2 34028  73.8834 340.2356 0543574 117.2975 353.2120 13.20626337810687"
      },
      "geometry": {
        "type": "Point",
        "coordinates": [
          -25.806123535408773,
          -17.98462791513366
        ]
      }
    },
    {
      "type": "Feature",
      "properties": {
        "norad_id": 34031,
        "name": "COSMOS 2251 DEB",
        "group": "cosmos-2251-debris",
        "lat": -67.11940839048765,
        "lon": -11.05596069966356,
        "alt_km": 684.7704194326825,
        "timestamp": "2025-12-17T17:50:19.644085+00:00",
        "meta_object_name": "COSMOS 2251 DEB",
        "meta_object_id": "1993-036HS",
        "meta_epoch": "2025-12-17T08:35:10.128768",
        "meta_mean_motion": 14.5974053,
        "meta_eccentricity": 0.00229784,
        "meta_inclination": 74.0126,
        "meta_ra_of_asc_node": 126.8874,
        "meta_arg_of_pericenter": 246.9886,
        "meta_mean_anomaly": 141.2241,
        "meta_ephemeris_type": 0,
        "meta_classification_type": "U",
        "meta_norad_cat_id": 34031,
        "meta_element_set_no": 999,
        "meta_rev_at_epoch": 88633,
        "meta_bstar": 0.0010110316,
        "meta_mean_motion_dot": 4.815e-05,
        "meta_mean_motion_ddot": 0,
        "tle_line1": "1 34031U 93036HS  25351.35775612  .00004815  00000+0  10110-2 0  9996",
        "tle_line2": "2 34031  74.0126 126.8874 0022978 246.9886 141.2241 14.59740530886331"
      },
      "geometry": {
        "type": "Point",
        "coordinates": [
          -11.05596069966356,
          -67.11940839048765
        ]
      }
    },
    {
      "type": "Feature",
      "properties": {
        "norad_id": 34035,
        "name": "COSMOS 2251 DEB",
        "group": "cosmos-2251-debris",
        "lat": -72.79262164937636,
        "lon": -87.56629479902519,
        "alt_km": 711.7374313705086,
        "timestamp": "2025-12-17T17:50:19.644096+00:00",
        "meta_object_name": "COSMOS 2251 DEB",
        "meta_object_id": "1993-036HW",
        "meta_epoch": "2025-12-16T07:47:07.079136",
        "meta_mean_motion": 14.51988505,
        "meta_eccentricity": 0.00449549,
        "meta_inclination": 74.0654,
        "meta_ra_of_asc_node": 342.3982,
        "meta_arg_of_pericenter": 343.1436,
        "meta_mean_anomaly": 80.0933,
        "meta_ephemeris_type": 0,
        "meta_classification_type": "U",
        "meta_norad_cat_id": 34035,
        "meta_element_set_no": 999,
        "meta_rev_at_epoch": 88018,
        "meta_bstar": 0.0012293043,
        "meta_mean_motion_dot": 5.006e-05,
        "meta_mean_motion_ddot": 0,
        "tle_line1": "1 34035U 93036HW  25350.32438749  .00005006  00000+0  12293-2 0  9990",
        "tle_line2": "2 34035  74.0654 342.3982 0044954 343.1436  80.0933 14.51988505880188"
      },
      "geometry": {
        "type": "Point",
        "coordinates": [
          -87.56629479902519,
          -72.79262164937636
        ]
      }
    }
  ]
}